{
  "norad_id": 39419,
  "name": "DUBAISAT-2",
  "history": [
    {
      "epoch": "2026-04-30T14:57:48.324672Z",
      "apogee_km": 544.0868275158718,
      "perigee_km": 529.3534796758486,
      "latitude_deg": 3.667768525470749e-05,
      "longitude_deg": 29.012180520282,
      "height_km": 547.1155922251472,
      "semi_major_axis_km": 6914.85715359586,
      "eccentricity": 0.00106534,
      "inclination_deg": 97.4554,
      "raan_deg": 112.0311,
      "arg_perigee_deg": 186.6564,
      "mean_anomaly_deg": 173.4526,
      "mean_motion_rev_day": 15.09829625
    },
    {
      "epoch": "2026-05-02T13:05:24.867744Z",
      "apogee_km": 544.2102168292031,
      "perigee_km": 529.1096832497069,
      "latitude_deg": -2.9352233754512677e-05,
      "longitude_deg": 57.08626249401265,
      "height_km": 547.2869553742067,
      "semi_major_axis_km": 6914.796950039455,
      "eccentricity": 0.0010919,
      "inclination_deg": 97.4551,
      "raan_deg": 113.9018,
      "arg_perigee_deg": 180.3673,
      "mean_anomaly_deg": 179.755,
      "mean_motion_rev_day": 15.09849343
    },
    {
      "epoch": "2026-05-03T20:54:05.811840Z",
      "apogee_km": 544.287915063931,
      "perigee_km": 528.9924279605457,
      "latitude_deg": -5.6825974506787405e-06,
      "longitude_deg": -60.10119129929292,
      "height_km": 547.3477431250611,
      "semi_major_axis_km": 6914.777171512238,
      "eccentricity": 0.001106,
      "inclination_deg": 97.4554,
      "raan_deg": 115.1914,
      "arg_perigee_deg": 176.3065,
      "mean_anomaly_deg": 183.8248,
      "mean_motion_rev_day": 15.09855821
    },
    {
      "epoch": "2026-05-04T20:45:35.930016Z",
      "apogee_km": 544.3360232143996,
      "perigee_km": 528.8926176153846,
      "latitude_deg": 5.950750388637162e-05,
      "longitude_deg": -57.98912394498648,
      "height_km": 547.3590429989778,
      "semi_major_axis_km": 6914.751320414892,
      "eccentricity": 0.0011167,
      "inclination_deg": 97.4555,
      "raan_deg": 116.1588,
      "arg_perigee_deg": 173.3621,
      "mean_anomaly_deg": 186.7759,
      "mean_motion_rev_day": 15.09864288
    },
    {
      "epoch": "2026-05-05T20:37:05.475360Z",
      "apogee_km": 544.3904885949023,
      "perigee_km": 528.7687607963899,
      "latitude_deg": 6.9299755423529435e-06,
      "longitude_deg": -55.87474824379703,
      "height_km": 547.3512341923614,
      "semi_major_axis_km": 6914.716624695646,
      "eccentricity": 0.0011296,
      "inclination_deg": 97.4559,
      "raan_deg": 117.1261,
      "arg_perigee_deg": 170.2426,
      "mean_anomaly_deg": 189.9025,
      "mean_motion_rev_day": 15.09875652
    },
    {
      "epoch": "2026-05-06T20:28:34.433184Z",
      "apogee_km": 544.4195735933527,
      "perigee_km": 528.6776003860114,
      "latitude_deg": 4.586484964734869e-05,
      "longitude_deg": -53.75732975364262,
      "height_km": 547.2840157316026,
      "semi_major_axis_km": 6914.685586989682,
      "eccentricity": 0.0011383,
      "inclination_deg": 97.4563,
      "raan_deg": 118.094,
      "arg_perigee_deg": 166.7971,
      "mean_anomaly_deg": 193.3559,
      "mean_motion_rev_day": 15.09885818
    },
    {
      "epoch": "2026-05-07T18:44:37.207680Z",
      "apogee_km": 544.5311099013879,
      "perigee_km": 528.549907243576,
      "latitude_deg": 1.0690980778997694e-06,
      "longitude_deg": -27.780578740260104,
      "height_km": 547.2764711776658,
      "semi_major_axis_km": 6914.677508572482,
      "eccentricity": 0.0011556,
      "inclination_deg": 97.4569,
      "raan_deg": 118.9968,
      "arg_perigee_deg": 163.5807,
      "mean_anomaly_deg": 196.5799,
      "mean_motion_rev_day": 15.09888464
    },
    {
      "epoch": "2026-05-08T21:46:57.185184Z",
      "apogee_km": 544.5902807519578,
      "perigee_km": 528.4376560897263,
      "latitude_deg": 5.0801699591897295e-05,
      "longitude_deg": -73.37827558114462,
      "height_km": 547.157376809196,
      "semi_major_axis_km": 6914.650968420841,
      "eccentricity": 0.001168,
      "inclination_deg": 97.4569,
      "raan_deg": 120.0928,
      "arg_perigee_deg": 159.6813,
      "mean_anomaly_deg": 200.4884,
      "mean_motion_rev_day": 15.09897157
    },
    {
      "epoch": "2026-05-09T21:38:25.032768Z",
      "apogee_km": 544.7057464626632,
      "perigee_km": 528.2834963618097,
      "latitude_deg": 1.2605514516877356e-05,
      "longitude_deg": -71.2565066230397,
      "height_km": 547.0622148259615,
      "semi_major_axis_km": 6914.631621412236,
      "eccentricity": 0.0011875,
      "inclination_deg": 97.4569,
      "raan_deg": 121.0604,
      "arg_perigee_deg": 155.9718,
      "mean_anomaly_deg": 204.2068,
      "mean_motion_rev_day": 15.09903494
    },
    {
      "epoch": "2026-05-10T21:29:52.643616Z",
      "apogee_km": 544.7646287364969,
      "perigee_km": 528.197204208629,
      "latitude_deg": 1.0937645950956609e-05,
      "longitude_deg": -69.13355238393073,
      "height_km": 546.8817836998593,
      "semi_major_axis_km": 6914.617916472563,
      "eccentricity": 0.001198,
      "inclination_deg": 97.4568,
      "raan_deg": 122.0282,
      "arg_perigee_deg": 152.3024,
      "mean_anomaly_deg": 207.8846,
      "mean_motion_rev_day": 15.09907983
    },
    {
      "epoch": "2026-05-11T19:45:54.190368Z",
      "apogee_km": 544.836157516278,
      "perigee_km": 528.1014285759484,
      "latitude_deg": -4.46939392077579e-05,
      "longitude_deg": -43.15146729395194,
      "height_km": 546.7151299206984,
      "semi_major_axis_km": 6914.605793046113,
      "eccentricity": 0.0012101,
      "inclination_deg": 97.4567,
      "raan_deg": 122.9312,
      "arg_perigee_deg": 149.123,
      "mean_anomaly_deg": 211.0713,
      "mean_motion_rev_day": 15.09911954
    },
    {
      "epoch": "2026-05-12T21:12:47.151648Z",
      "apogee_km": 544.8989005918211,
      "perigee_km": 528.0176077383021,
      "latitude_deg": -4.489608070655616e-05,
      "longitude_deg": -64.88525289849656,
      "height_km": 546.4968880540301,
      "semi_major_axis_km": 6914.595254165061,
      "eccentricity": 0.0012207,
      "inclination_deg": 97.4563,
      "raan_deg": 123.9632,
      "arg_perigee_deg": 145.731,
      "mean_anomaly_deg": 214.4709,
      "mean_motion_rev_day": 15.09915406
    },
    {
      "epoch": "2026-05-13T19:28:48.390816Z",
      "apogee_km": 544.9374511491342,
      "perigee_km": 527.9787152480822,
      "latitude_deg": 1.0350629532943677e-05,
      "longitude_deg": -38.902396339427376,
      "height_km": 546.299168659936,
      "semi_major_axis_km": 6914.595083198608,
      "eccentricity": 0.0012263,
      "inclination_deg": 97.4559,
      "raan_deg": 124.8657,
      "arg_perigee_deg": 143.0805,
      "mean_anomaly_deg": 217.1271,
      "mean_motion_rev_day": 15.09915462
    },
    {
      "epoch": "2026-05-14T06:36:48.887712Z",
      "apogee_km": 544.9256516065507,
      "perigee_km": 527.968325832614,
      "latitude_deg": -2.4229386813037165e-05,
      "longitude_deg": 154.09030251864775,
      "height_km": 546.1496667179233,
      "semi_major_axis_km": 6914.583988719582,
      "eccentricity": 0.0012262,
      "inclination_deg": 97.4556,
      "raan_deg": 125.3177,
      "arg_perigee_deg": 141.5637,
      "mean_anomaly_deg": 218.6468,
      "mean_motion_rev_day": 15.09919096
    }
  ]
}